O3B MPOWER F1           
1 54755U 22174A   24162.25919344 -.00000027  00000+0  00000+0 0  9992
2 54755   0.0623 356.0190 0006845  84.8280 123.9557  5.00114279 28490
